ONEWEB-0056             
1 45159U 20008AE  26199.51320753  .00000600  00000+0  16827-2 0  9998
2 45159  87.8824  30.0189 0002067  83.5180 276.6183 13.10374317312283
ONEWEB-0057             
1 45160U 20008AF  26199.53045566  .00000380  00000+0  10532-2 0  9990
2 45160  87.8816  30.0270 0001467  74.5313 285.5976 13.10369569312459
ONEWEB-0058             
1 45161U 20008AG  26199.51711674  .00011534  00000+0  32917-1 0  9992
2 45161  87.8812  30.0326 0001818  98.1878 261.9455 13.10468681312529
ONEWEB-0059             
1 45162U 20008AH  26199.28443663  .00000504  00000+0  14079-2 0  9992
2 45162  87.8817  30.0794 0001582  88.2690 271.8619 13.10374886312394
ONEWEB-0062             
1 45163U 20008AJ  26199.53696430  .00000086  00000+0  21127-3 0  9991
2 45163  87.8818  30.0188 0002088  94.2087 265.9279 13.10369084312291
ONEWEB-0065             
1 45164U 20008AK  26199.49452254 -.00000400  00000+0 -11834-2 0  9996
2 45164  87.8823  30.0351 0001762  78.1824 281.9501 13.10375223311981
ONEWEB-0066             
1 45424U 20020A   26199.73352610 -.00000247  00000+0 -73203-3 0  9999
2 45424  87.8884  14.7885 0001742  95.8450 264.2877 13.11419670306819
ONEWEB-0067             
1 45425U 20020B   26199.00828966  .00000376  00000+0  10256-2 0  9991
2 45425  87.8907  14.8610 0001708  86.7762 273.3561 13.11426811306771
ONEWEB-0080             
1 45426U 20020C   26199.46582715  .00000380  00000+0  10354-2 0  9995
2 45426  87.8898  14.8415 0002088  98.0703 262.0662 13.11417721306808
ONEWEB-0090             
1 45427U 20020D   26199.41833953  .00000087  00000+0  21057-3 0  9991
2 45427  87.8896  14.8552 0001930  91.7701 268.3648 13.11415674306765
ONEWEB-0061             
1 45428U 20020E   26199.45026974 -.00000310  00000+0 -90961-3 0  9994
2 45428  87.8893  14.8330 0001827  92.3513 267.7824 13.11418599306724
ONEWEB-0081             
1 45429U 20020F   26199.73694615 -.00000410  00000+0 -11932-2 0  9990
2 45429  87.8890  14.7852 0001630  91.9706 268.1609 13.11415353306878
ONEWEB-0069             
1 45430U 20020G   26199.73876926 -.00000416  00000+0 -12109-2 0  9992
2 45430  87.8892  14.7882 0001650  94.9845 265.1471 13.11418089306800
ONEWEB-0031             
1 45431U 20020H   26199.77427032  .00000324  00000+0  87791-3 0  9993
2 45431  87.8882  14.7837 0002009  94.2328 265.9029 13.11419384306792
ONEWEB-0027             
1 45432U 20020J   26199.16704455 -.00000149  00000+0 -41652-3 0  9997
2 45432  87.9149 359.7024 0002291  92.4712 267.6682 13.17651072310438
ONEWEB-0064             
1 45433U 20020K   26199.77256209  .00000309  00000+0  83690-3 0  9998
2 45433  87.8889  14.7772 0002014  91.5964 268.5395 13.11418347306828
